[{"OBJECT_NAME":"INTELSAT 30 (IS-30)","OBJECT_ID":"2014-062A","EPOCH":"2026-04-24T09:28:38.441568","MEAN_MOTION":1.00269572,"ECCENTRICITY":0.00022471,"INCLINATION":0.0073,"RA_OF_ASC_NODE":224.7449,"ARG_OF_PERICENTER":46.3663,"MEAN_ANOMALY":348.4158,"EPHEMERIS_TYPE":0,"CLASSIFICATION_TYPE":"U","NORAD_CAT_ID":40271,"ELEMENT_SET_NO":999,"REV_AT_EPOCH":625,"BSTAR":0,"MEAN_MOTION_DOT":-1.65e-6,"MEAN_MOTION_DDOT":0},{"OBJECT_NAME":"DIRECTV 14","OBJECT_ID":"2014-078B","EPOCH":"2026-04-26T19:56:20.816736","MEAN_MOTION":1.00268653,"ECCENTRICITY":1.68e-5,"INCLINATION":0.0034,"RA_OF_ASC_NODE":301.7485,"ARG_OF_PERICENTER":43.0406,"MEAN_ANOMALY":69.8831,"EPHEMERIS_TYPE":0,"CLASSIFICATION_TYPE":"U","NORAD_CAT_ID":40333,"ELEMENT_SET_NO":999,"REV_AT_EPOCH":4152,"BSTAR":0,"MEAN_MOTION_DOT":-1.36e-6,"MEAN_MOTION_DDOT":0},{"OBJECT_NAME":"DIRECTV 15","OBJECT_ID":"2015-026A","EPOCH":"2026-04-26T14:47:25.983744","MEAN_MOTION":1.00272066,"ECCENTRICITY":1.16e-5,"INCLINATION":0.0444,"RA_OF_ASC_NODE":83.742,"ARG_OF_PERICENTER":133.8912,"MEAN_ANOMALY":115.9648,"EPHEMERIS_TYPE":0,"CLASSIFICATION_TYPE":"U","NORAD_CAT_ID":40663,"ELEMENT_SET_NO":999,"REV_AT_EPOCH":3994,"BSTAR":0,"MEAN_MOTION_DOT":-1.14e-6,"MEAN_MOTION_DDOT":0},{"OBJECT_NAME":"SKY MEXICO-1","OBJECT_ID":"2015-026B","EPOCH":"2026-04-26T20:02:20.243328","MEAN_MOTION":1.00268668,"ECCENTRICITY":0.0002187,"INCLINATION":0.0212,"RA_OF_ASC_NODE":105.6263,"ARG_OF_PERICENTER":293.1359,"MEAN_ANOMALY":37.8413,"EPHEMERIS_TYPE":0,"CLASSIFICATION_TYPE":"U","NORAD_CAT_ID":40664,"ELEMENT_SET_NO":999,"REV_AT_EPOCH":3993,"BSTAR":0,"MEAN_MOTION_DOT":0,"MEAN_MOTION_DDOT":0},{"OBJECT_NAME":"INTELSAT 34 (IS-34)","OBJECT_ID":"2015-039A","EPOCH":"2026-04-26T20:08:57.107904","MEAN_MOTION":1.00271708,"ECCENTRICITY":4.39e-5,"INCLINATION":0.0156,"RA_OF_ASC_NODE":282.5546,"ARG_OF_PERICENTER":52.5557,"MEAN_ANOMALY":126.4706,"EPHEMERIS_TYPE":0,"CLASSIFICATION_TYPE":"U","NORAD_CAT_ID":40874,"ELEMENT_SET_NO":999,"REV_AT_EPOCH":3912,"BSTAR":0,"MEAN_MOTION_DOT":-2.97e-6,"MEAN_MOTION_DDOT":0},{"OBJECT_NAME":"INTELSAT 31 (IS-31)","OBJECT_ID":"2016-035A","EPOCH":"2026-04-26T13:06:58.550400","MEAN_MOTION":1.00266497,"ECCENTRICITY":0.0002454,"INCLINATION":0.013,"RA_OF_ASC_NODE":237.9531,"ARG_OF_PERICENTER":38.0223,"MEAN_ANOMALY":40.2703,"EPHEMERIS_TYPE":0,"CLASSIFICATION_TYPE":"U","NORAD_CAT_ID":41581,"ELEMENT_SET_NO":999,"REV_AT_EPOCH":3616,"BSTAR":0,"MEAN_MOTION_DOT":-1.62e-6,"MEAN_MOTION_DDOT":0},{"OBJECT_NAME":"INTELSAT 36 (IS-36)","OBJECT_ID":"2016-053A","EPOCH":"2026-04-26T15:36:13.804128","MEAN_MOTION":1.00270682,"ECCENTRICITY":0.0001426,"INCLINATION":0.0148,"RA_OF_ASC_NODE":322.2759,"ARG_OF_PERICENTER":357.3225,"MEAN_ANOMALY":197.6014,"EPHEMERIS_TYPE":0,"CLASSIFICATION_TYPE":"U","NORAD_CAT_ID":41747,"ELEMENT_SET_NO":999,"REV_AT_EPOCH":3544,"BSTAR":0,"MEAN_MOTION_DOT":-3.6e-7,"MEAN_MOTION_DDOT":0},{"OBJECT_NAME":"INTELSAT 32E (IS-32E)","OBJECT_ID":"2017-007B","EPOCH":"2026-04-26T20:12:26.773056","MEAN_MOTION":1.00268397,"ECCENTRICITY":5.94e-5,"INCLINATION":0.0202,"RA_OF_ASC_NODE":246.5188,"ARG_OF_PERICENTER":89.3738,"MEAN_ANOMALY":138.891,"EPHEMERIS_TYPE":0,"CLASSIFICATION_TYPE":"U","NORAD_CAT_ID":41945,"ELEMENT_SET_NO":999,"REV_AT_EPOCH":3371,"BSTAR":0,"MEAN_MOTION_DOT":0,"MEAN_MOTION_DDOT":0},{"OBJECT_NAME":"INTELSAT 35E (IS-35E)","OBJECT_ID":"2017-041A","EPOCH":"2026-04-26T16:49:36.768000","MEAN_MOTION":1.00271393,"ECCENTRICITY":0.0002209,"INCLINATION":0.0127,"RA_OF_ASC_NODE":225.3125,"ARG_OF_PERICENTER":170.3183,"MEAN_ANOMALY":36.9938,"EPHEMERIS_TYPE":0,"CLASSIFICATION_TYPE":"U","NORAD_CAT_ID":42818,"ELEMENT_SET_NO":999,"REV_AT_EPOCH":3229,"BSTAR":0,"MEAN_MOTION_DOT":0,"MEAN_MOTION_DDOT":0},{"OBJECT_NAME":"INTELSAT 37E (IS-37E)","OBJECT_ID":"2017-059A","EPOCH":"2026-04-26T20:19:41.079072","MEAN_MOTION":1.00269905,"ECCENTRICITY":0.000232,"INCLINATION":0.0178,"RA_OF_ASC_NODE":240.7754,"ARG_OF_PERICENTER":182.4263,"MEAN_ANOMALY":78.5654,"EPHEMERIS_TYPE":0,"CLASSIFICATION_TYPE":"U","NORAD_CAT_ID":42950,"ELEMENT_SET_NO":999,"REV_AT_EPOCH":3155,"BSTAR":0,"MEAN_MOTION_DOT":0,"MEAN_MOTION_DDOT":0},{"OBJECT_NAME":"AZERSPACE 2 (IS-38)","OBJECT_ID":"2018-074A","EPOCH":"2026-04-26T18:48:38.522880","MEAN_MOTION":1.00270745,"ECCENTRICITY":0.0001448,"INCLINATION":0.0203,"RA_OF_ASC_NODE":253.4031,"ARG_OF_PERICENTER":131.6802,"MEAN_ANOMALY":156.9667,"EPHEMERIS_TYPE":0,"CLASSIFICATION_TYPE":"U","NORAD_CAT_ID":43632,"ELEMENT_SET_NO":999,"REV_AT_EPOCH":2793,"BSTAR":0,"MEAN_MOTION_DOT":1.25e-6,"MEAN_MOTION_DDOT":0},{"OBJECT_NAME":"HORIZONS-3E","OBJECT_ID":"2018-074B","EPOCH":"2026-04-26T19:30:15.818112","MEAN_MOTION":1.00270591,"ECCENTRICITY":6.23e-5,"INCLINATION":0.0404,"RA_OF_ASC_NODE":76.5337,"ARG_OF_PERICENTER":252.94,"MEAN_ANOMALY":346.8895,"EPHEMERIS_TYPE":0,"CLASSIFICATION_TYPE":"U","NORAD_CAT_ID":43633,"ELEMENT_SET_NO":999,"REV_AT_EPOCH":2782,"BSTAR":0,"MEAN_MOTION_DOT":-4.2e-7,"MEAN_MOTION_DDOT":0},{"OBJECT_NAME":"AT&T T-16","OBJECT_ID":"2019-034A","EPOCH":"2026-04-26T14:47:55.936032","MEAN_MOTION":1.00273119,"ECCENTRICITY":4.02e-5,"INCLINATION":0.037,"RA_OF_ASC_NODE":86.1259,"ARG_OF_PERICENTER":144.1619,"MEAN_ANOMALY":105.4617,"EPHEMERIS_TYPE":0,"CLASSIFICATION_TYPE":"U","NORAD_CAT_ID":44333,"ELEMENT_SET_NO":999,"REV_AT_EPOCH":2511,"BSTAR":0,"MEAN_MOTION_DOT":-1.27e-6,"MEAN_MOTION_DDOT":0},{"OBJECT_NAME":"INTELSAT 39 (IS-39)","OBJECT_ID":"2019-049B","EPOCH":"2026-04-26T21:15:37.813248","MEAN_MOTION":1.00270949,"ECCENTRICITY":6.04e-5,"INCLINATION":0.0218,"RA_OF_ASC_NODE":254.392,"ARG_OF_PERICENTER":352.1928,"MEAN_ANOMALY":349.1478,"EPHEMERIS_TYPE":0,"CLASSIFICATION_TYPE":"U","NORAD_CAT_ID":44476,"ELEMENT_SET_NO":999,"REV_AT_EPOCH":2461,"BSTAR":0,"MEAN_MOTION_DOT":2.2e-7,"MEAN_MOTION_DDOT":0},{"OBJECT_NAME":"GALAXY 30 (G-30)","OBJECT_ID":"2020-056C","EPOCH":"2026-04-26T16:23:46.745088","MEAN_MOTION":1.00271187,"ECCENTRICITY":0.0002479,"INCLINATION":0.0129,"RA_OF_ASC_NODE":235.3307,"ARG_OF_PERICENTER":173.012,"MEAN_ANOMALY":287.2804,"EPHEMERIS_TYPE":0,"CLASSIFICATION_TYPE":"U","NORAD_CAT_ID":46114,"ELEMENT_SET_NO":999,"REV_AT_EPOCH":2077,"BSTAR":0,"MEAN_MOTION_DOT":0,"MEAN_MOTION_DDOT":0},{"OBJECT_NAME":"GALAXY 33 (G-33)","OBJECT_ID":"2022-128A","EPOCH":"2026-04-26T16:21:24.472800","MEAN_MOTION":1.00273183,"ECCENTRICITY":0.000178,"INCLINATION":0.0161,"RA_OF_ASC_NODE":277.5524,"ARG_OF_PERICENTER":103.9818,"MEAN_ANOMALY":305.4907,"EPHEMERIS_TYPE":0,"CLASSIFICATION_TYPE":"U","NORAD_CAT_ID":54026,"ELEMENT_SET_NO":999,"REV_AT_EPOCH":1322,"BSTAR":0,"MEAN_MOTION_DOT":6.7e-7,"MEAN_MOTION_DDOT":0},{"OBJECT_NAME":"GALAXY 34 (G-34)","OBJECT_ID":"2022-128B","EPOCH":"2026-04-26T17:24:46.065888","MEAN_MOTION":1.00273854,"ECCENTRICITY":0.0001533,"INCLINATION":0.0103,"RA_OF_ASC_NODE":238.5432,"ARG_OF_PERICENTER":156.3845,"MEAN_ANOMALY":311.9822,"EPHEMERIS_TYPE":0,"CLASSIFICATION_TYPE":"U","NORAD_CAT_ID":54027,"ELEMENT_SET_NO":999,"REV_AT_EPOCH":1339,"BSTAR":0,"MEAN_MOTION_DOT":4.7e-7,"MEAN_MOTION_DDOT":0}]
