INTELSAT 30 (IS-30)     
1 40271U 14062A   26114.39488937 -.00000165  00000+0  00000+0 0  9993
2 40271   0.0073 224.7449 0002247  46.3663 348.4158  1.00269572  6259
DIRECTV 14              
1 40333U 14078B   26116.83079649 -.00000136  00000+0  00000+0 0  9994
2 40333   0.0034 301.7485 0000168  43.0406  69.8831  1.00268653 41520
DIRECTV 15              
1 40663U 15026A   26116.61627296 -.00000114  00000+0  00000+0 0  9993
2 40663   0.0444  83.7420 0000116 133.8912 115.9648  1.00272066 39945
SKY MEXICO-1            
1 40664U 15026B   26116.83495652  .00000000  00000+0  00000+0 0  9990
2 40664   0.0212 105.6263 0002187 293.1359  37.8413  1.00268668 39937
INTELSAT 34 (IS-34)     
1 40874U 15039A   26116.83954986 -.00000297  00000+0  00000+0 0  9996
2 40874   0.0156 282.5546 0000439  52.5557 126.4706  1.00271708 39121
INTELSAT 31 (IS-31)     
1 41581U 16035A   26116.54651100 -.00000162  00000+0  00000+0 0  9990
2 41581   0.0130 237.9531 0002454  38.0223  40.2703  1.00266497 36165
INTELSAT 36 (IS-36)     
1 41747U 16053A   26116.65015977 -.00000036  00000+0  00000+0 0  9992
2 41747   0.0148 322.2759 0001426 357.3225 197.6014  1.00270682 35448
INTELSAT 32E (IS-32E)   
1 41945U 17007B   26116.84197654  .00000000  00000+0  00000+0 0  9996
2 41945   0.0202 246.5188 0000594  89.3738 138.8910  1.00268397 33719
INTELSAT 35E (IS-35E)   
1 42818U 17041A   26116.70112000  .00000000  00000+0  00000+0 0  9991
2 42818   0.0127 225.3125 0002209 170.3183  36.9938  1.00271393 32291
INTELSAT 37E (IS-37E)   
1 42950U 17059A   26116.84700323  .00000000  00000+0  00000+0 0  9993
2 42950   0.0178 240.7754 0002320 182.4263  78.5654  1.00269905 31551
AZERSPACE 2 (IS-38)     
1 43632U 18074A   26116.78377920  .00000125  00000+0  00000+0 0  9993
2 43632   0.0203 253.4031 0001448 131.6802 156.9667  1.00270745 27938
HORIZONS-3E             
1 43633U 18074B   26116.81268308 -.00000042  00000+0  00000+0 0  9996
2 43633   0.0404  76.5337 0000623 252.9400 346.8895  1.00270591 27820
AT&T T-16               
1 44333U 19034A   26116.61661963 -.00000127  00000+0  00000+0 0  9997
2 44333   0.0370  86.1259 0000402 144.1619 105.4617  1.00273119 25119
INTELSAT 39 (IS-39)     
1 44476U 19049B   26116.88585432  .00000022  00000+0  00000+0 0  9999
2 44476   0.0218 254.3920 0000604 352.1928 349.1478  1.00270949 24614
GALAXY 30 (G-30)        
1 46114U 20056C   26116.68317992  .00000000  00000+0  00000+0 0  9998
2 46114   0.0129 235.3307 0002479 173.0120 287.2804  1.00271187 20773
GALAXY 33 (G-33)        
1 54026U 22128A   26116.68153325  .00000067  00000+0  00000+0 0  9992
2 54026   0.0161 277.5524 0001780 103.9818 305.4907  1.00273183 13226
GALAXY 34 (G-34)        
1 54027U 22128B   26116.72553317  .00000047  00000+0  00000+0 0  9991
2 54027   0.0103 238.5432 0001533 156.3845 311.9822  1.00273854 13397
